COSMOS 2534 [GLONASS-M] 
1 44299U 19030A   26204.36418141  .00000091  00000+0  00000+0 0  9991
2 44299  64.3713 191.3984 0013416 275.1477 257.7839  2.13102412 55699
BEIDOU-3 IGSO-2         
1 44337U 19035A   26204.77821130 -.00000115  00000+0  00000+0 0  9998
2 44337  55.2554 158.5416 0039093 213.1598 328.3926  1.00289602 26034
NAVSTAR 78 (USA 293)    
1 44506U 19056A   26204.78472221 -.00000112  00000+0  00000+0 0  9990
2 44506  55.6171 329.6883 0063840 198.3517 335.0764  2.00570931 50808
BEIDOU-3 M24            
1 44542U 19061A   26204.21835484  .00000073  00000+0  00000+0 0  9993
2 44542  54.3973 181.5127 0008776   0.5938 359.3899  1.86229305 46462
BEIDOU-3 M23            
1 44543U 19061B   26204.35072186  .00000072  00000+0  00000+0 0  9990
2 44543  54.3962 181.4765 0006029 342.0562  18.0390  1.86227509 46474
EUTELSAT 5 WEST B       
1 44624U 19067A   26204.88030727 -.00000037  00000+0  00000+0 0  9991
2 44624   0.0717 328.7411 0003314 151.6901 133.0730  1.00272259 24806
BEIDOU-3 M22            
1 44793U 19078A   26201.91091067 -.00000098  00000+0  00000+0 0  9992
2 44793  53.9028 298.6402 0005603  50.2813 309.8054  1.86227204 45279
BEIDOU-3 M21            
1 44794U 19078B   26203.66162958 -.00000094  00000+0  00000+0 0  9991
2 44794  53.8746 298.5385 0003510  49.7374 310.3307  1.86227707 45316
COSMOS 2544 [GLONASS-M] 
1 44850U 19088A   26204.16243200 -.00000046  00000+0  00000+0 0  9998
2 44850  65.5856  72.5304 0012036 253.5575 106.3785  2.13102883 51489
BEIDOU-3 M19            
1 44864U 19090A   26204.16652241 -.00000073  00000+0  00000+0 0  9995
2 44864  56.5910  61.6011 0016527 296.6472 239.5314  1.86231503 44909
BEIDOU-3 M20            
1 44865U 19090B   26202.96464863 -.00000079  00000+0  00000+0 0  9999
2 44865  56.5915  61.6754 0014231 312.1692 227.7948  1.86231478 44865
BEIDOU-3 G2             
1 45344U 20017A   26204.85407096 -.00000138  00000+0  00000+0 0  9994
2 45344   2.9370  47.8539 0002131  58.9538 222.2741  1.00272725 23623
COSMOS 2545 [GLONASS-M] 
1 45358U 20018A   26204.35735539 -.00000088  00000+0  00000+0 0  9995
2 45358  64.3311 311.1469 0009943 230.3767 129.5577  2.13102568 49437
BEIDOU-3 G3             
1 45807U 20040A   26204.84809177 -.00000351  00000+0  00000+0 0  9996
2 45807   2.5351  67.5036 0002259 318.3137 331.6269  1.00272882 22434
NAVSTAR 79 (USA 304)    
1 45854U 20041A   26203.87491671 -.00000079  00000+0  00000+0 0  9994
2 45854  56.6939  27.5596 0065610 204.6648 328.6198  2.00558039 44757
GALAXY 30 (G-30)        
1 46114U 20056C   26204.51629133  .00000042  00000+0  00000+0 0  9997
2 46114   0.0142  37.0549 0002323  82.3407 242.7034  1.00270548 21650
COSMOS 2547 [GLONASS-K] 
1 46805U 20075A   26204.54716176  .00000090  00000+0  00000+0 0  9995
2 46805  64.6022 191.2621 0009358 239.5947 120.3197  2.13100077 44687
NAVSTAR 80 (USA 309)    
1 46826U 20078A   26204.78472221  .00000087  00000+0  00000+0 0  9993
2 46826  53.9764 209.2941 0074757 207.9705 239.8518  2.00565296 42242
NAVSTAR 81 (USA 319)    
1 48859U 21054A   26204.47983274 -.00000113  00000+0  00000+0 0  9998
2 48859  55.1548 331.0007 0026705 228.6221 185.4073  2.00566985 37482
QZS-1R (MICHIBIKI-1R)   
1 49336U 21096A   26204.54211512 -.00000328  00000+0  00000+0 0  9990
2 49336  37.5340  79.0424 0755622 272.3546 275.8173  1.00242971 17378
GSAT0223 (GALILEO 27)   
1 49809U 21116A   26204.35640611 -.00000106  00000+0  00000+0 0  9997
2 49809  57.1472 340.6987 0002573 195.8293 161.8890  1.70476582 28798
GSAT0224 (GALILEO 28)   
1 49810U 21116B   26204.18061353 -.00000106  00000+0  00000+0 0  9990
2 49810  57.1469 340.7020 0002038 183.2732 179.1905  1.70476626 28822
COSMOS 2557 [GLONASS-K] 
1 52984U 22075A   26204.24196424 -.00000090  00000+0  00000+0 0  9998
2 52984  64.2748 313.2153 0011103 270.4489  89.4436  2.13102385 31484
COSMOS 2559 [GLONASS-K] 
1 54031U 22130A   26202.65390199 -.00000090  00000+0  00000+0 0  9993
2 54031  64.2486 313.3533 0013183 181.8332 178.1821  2.13101809 29428
COSMOS 2564 [GLONASS-M] 
1 54377U 22161A   26204.37404118  .00000092  00000+0  00000+0 0  9999
2 54377  64.7442 191.5105 0012150 224.6330 135.2765  2.13102088 28404
NAVSTAR 82 (USA 343)    
1 55268U 23009A   26203.85808699  .00000007  00000+0  00000+0 0  9991
2 55268  55.1243 147.1168 0006263 321.9041  41.9521  2.00569256 25962
BEIDOU-3 G4             
1 56564U 23066A   26204.85389846 -.00000275  00000+0  00000+0 0  9991
2 56564   0.4541 341.3855 0005190 182.2775 225.3731  1.00270272 11767
NVS-01 (IRNSS-1J)       
1 56759U 23076A   26204.85181845 -.00000329  00000+0  00000+0 0  9997
2 56759   2.0821 242.6774 0002914  16.6899 118.3867  1.00275034 11484
COSMOS 2569 [GLONASS-K2]
1 57517U 23114A   26203.91704728 -.00000048  00000+0  00000+0 0  9998
2 57517  65.3229  71.4159 0009429 295.2211  64.7491  2.13103906 23020
BEIDOU-3 M28            
1 58654U 23207A   26204.27549741 -.00000074  00000+0  00000+0 0  9995
2 58654  55.7853  61.0858 0002153  10.4773 349.5911  1.86229831 17510
BEIDOU-3 M26            
1 58655U 23207B   26204.07299001 -.00000076  00000+0  00000+0 0  9997
2 58655  55.7875  61.0793 0001632 323.8282  36.2241  1.86229895 17493
